#aV2009  5 16  0  0   .00000000      96 DD+AD WGS84 FIT  NGA
## 1531 518400.00000000   900.00000000 54967  .0000000000000
+   31     2  3  4  5  6  7  8  9 10 11 12 13 14 15 16 17 18
+         19 20 21 22 23 24 25 26 27 28 29 30 31 32  0  0  0
+          0  0  0  0  0  0  0  0  0  0  0  0  0  0  0  0  0
+          0  0  0  0  0  0  0  0  0  0  0  0  0  0  0  0  0
+          0  0  0  0  0  0  0  0  0  0  0  0  0  0  0  0  0
++         0  0  0  0  0  0  0  0  0  0  0  0  0  0  0  0  0
++         0  0  0  0  0  0  0  0  0  0  0  0  0  0  0  0  0
++         0  0  0  0  0  0  0  0  0  0  0  0  0  0  0  0  0
++         0  0  0  0  0  0  0  0  0  0  0  0  0  0  0  0  0
++         0  0  0  0  0  0  0  0  0  0  0  0  0  0  0  0  0
%c cc cc ccc ccc cccc cccc cccc cccc ccccc ccccc ccccc ccccc
%c cc cc ccc ccc cccc cccc cccc cccc ccccc ccccc ccccc ccccc
%f  0.0000000  0.000000000  0.00000000000  0.000000000000000
%f  0.0000000  0.000000000  0.00000000000  0.000000000000000
%i    0    0    0    0      0      0      0      0         0
%i    0    0    0    0      0      0      0      0         0
/*      NGA, ST. LOUIS,MO.                                  
/*   EPHEMERIS COMPUTED FROM  3 DAYS OF DATA                
/* CCCCCCCCCCCCCCCCCCCCCCCCCCCCCCCCCCCCCCCCCCCCCCCCCCCCCCCCC
/* CCCCCCCCCCCCCCCCCCCCCCCCCCCCCCCCCCCCCCCCCCCCCCCCCCCCCCCCC
*  2009  5 16  8  0   .00000000                                                 
P  2 -10243.853143 -21823.288285  11499.521194    154.281886                    
V  2  12268.314158   8405.936791  26245.541303       .005606                    
P  3   8945.641960  13688.423169 -21270.166601    393.665948                    
V  3 -24508.083813   9832.415700  -3679.816099       .051301                    
P  4   2088.665519 -17917.207260  19244.781622    -93.029640                    
V  4  18650.636157  16591.354425  13694.117073      -.154159                    
P  5 -14853.766823  -4258.597191  21302.965765    -80.954003                    
V  5   4872.187766 -27391.024252  -1928.977110      -.197176                    
P  6   2635.220753  15583.421175 -21149.722596    124.630237                    
V  6 -26272.682232   7856.313499   2548.499166       .152545                    
P  7  18426.462636   -175.754858 -19192.690959     18.779404                    
V  7  16221.489479  18087.205308  15308.772178      -.006160                    
P  8   9297.813719 -11457.744181 -22100.050491   -203.270689                    
V  8  18698.189136  20714.575366  -3363.997925      -.018157                    
P  9 -21199.811820 -14814.338920   5597.432113     56.119597                    
V  9  -4198.366498  -7097.994166 -30976.160367       .020163                    
P 10  -3772.222263 -22085.605580 -14159.147358    -16.058276                    
V 10   7392.349138 -16414.780217  24240.299265      -.005394                    
P 11  24018.804888  10196.507925   5651.148008     -2.716316                    
V 11   3745.224118   7891.235224 -28744.077562      -.014135                    
P 12 -13845.912478  -6402.551163  21821.046083   -280.489006                    
V 12   7555.707367 -26451.995617  -2857.716865       .052923                    
P 13  25874.133871  -5925.398217  -1051.245877    297.202955                    
V 13   1489.775152   1462.157731  32454.295542       .009446                    
P 14 -15737.363087  14280.921235  15974.176886   -109.881909                    
V 14 -19881.113109   3000.184086 -22544.078040       .059535                    
P 15 -15992.774639  -9457.836882 -18980.477522   -292.089644                    
V 15  22882.252241  -7819.503442 -15305.660532      -.037444                    
P 16   -149.330350  24484.514591  -9920.457914     50.620512                    
V 16  -6029.049808  11516.141096  28570.978892      -.033085                    
P 17  16830.785443 -14538.158155  14444.072953     59.239115                    
V 17  18313.797217  -2159.052845 -23812.466239       .019393                    
P 18 -15903.700028  14459.316067 -15131.133564    -56.511574                    
V 18   3196.505799 -19739.286667 -22272.531000       .033033                    
P 19  17817.046774   9207.598388 -17471.122843     25.537212                    
V 19 -21560.326289   5650.010885 -18692.183564      -.010803                    
P 20  15044.828278   3952.317973  21399.937560     82.511028                    
V 20  -6622.329035  26739.078823   -240.617675      -.010166                    
P 21 -17052.574276   3490.457867 -19958.205565     13.723431                    
V 21 -17124.717947 -19392.500031  10469.500986      -.020572                    
P 22 -11809.810368  22904.862285  -6115.919470    199.593934                    
V 22   -876.854682  -8655.980711 -30033.675756      -.006670                    
P 23  24488.744896   1152.864408  10516.434271    390.023972                    
V 23 -12402.094929   5260.608626  27890.540757       .001649                    
P 24 -20917.905494  -9504.355350 -12966.048926    189.268591                    
V 24  -9175.177349 -14335.028322  25308.849317       .029021                    
P 25  21564.361005   5521.263124 -13994.033232    414.733534                    
V 25  12734.721834  13485.183594  24538.577080       .195269                    
P 26 -23673.770203  -3569.760016 -12628.601177     61.038783                    
V 26  14410.185763  -3924.365727 -26585.967809       .012845                    
P 27 -19706.136539 -17768.132739    -41.821268     49.473248                    
V 27   2273.577293  -1214.406723 -32079.096974       .031098                    
P 28  12538.987457 -21553.674567  -8238.804055    -24.816971                    
V 28   -588.283501  11470.328595 -29683.966962      -.002843                    
P 29 -25987.855550   5268.342843   1193.675298     20.552356                    
V 29    688.599838  -3129.130642  31706.624358       .038721                    
P 30 -15960.287826   6515.589155  19816.473577    146.622520                    
V 30   4523.934401 -25664.785802  11947.347104       .027068                    
P 31    481.981300  18776.663637  18928.960992    -60.337037                    
V 31 -17551.363312 -15859.735997  16495.362021      -.008708                    
P 32  10327.597771  13663.693878  20759.100916    260.855838                    
V 32  -9435.256190  23588.269386 -10796.689365      -.052262                    
EOF
